SENTINEL-2A             
1 40697U 15028A   26191.85105014 -.00000165  00000+0 -46160-4 0  9999
2 40697  98.5678 266.3661 0001255  94.2283 265.9043 14.30812903577113
SENTINEL-2B             
1 42063U 17013A   26191.84386345 -.00000229  00000+0 -70897-4 0  9996
2 42063  98.5685 266.2838 0001218  89.7747 270.3576 14.30813322488026
SENTINEL-2C             
1 60989U 24157A   26191.10961240  .00000041  00000+0  32184-4 0  9999
2 60989  98.5685 265.5666 0000946  98.1407 261.9883 14.30814768 96261
